start=new Date('2022-10-05T00:00:00.000Z').valueOf();
sats=[{"RA_OF_ASC_NODE":"287.3099","RCS_SIZE":"LARGE","MEAN_MOTION_DOT":"0.00000475","OBJECT_NAME":"STARLINK-4489","TLE_LINE2":"2 53542  53.2173 287.3099 0001184  84.2529 341.2002 15.49884526  1302","ECCENTRICITY":"0.00011840","REF_FRAME":"TEME","EPHEMERIS_TYPE":"0","CLASSIFICATION_TYPE":"U","INCLINATION":"53.2173","PERIAPSIS":"416.261","LAUNCH_DATE":"2022-08-19","ARG_OF_PERICENTER":"84.2529","CENTER_NAME":"EARTH","MEAN_ELEMENT_THEORY":"SGP4","APOAPSIS":"417.870","SITE":"AFETR","OBJECT_TYPE":"PAYLOAD","MEAN_MOTION_DDOT":"0.0000000000000","DECAY_DATE":null,"TIME_SYSTEM":"UTC","REV_AT_EPOCH":"130","TLE_LINE1":"1 53542U 22101R   22277.91667824  .00000475  00000-0  16325-4 0  9995","OBJECT_ID":"2022-101R","FILE":"3591597","GP_ID":"214194097","EPOCH":"2022-10-04T22:00:00.999936","MEAN_MOTION":"15.49884526","MEAN_ANOMALY":"341.2002","SEMIMAJOR_AXIS":"6795.201","PERIOD":"92.910","NORAD_CAT_ID":"53542","COUNTRY_CODE":"US","BSTAR":"0.00001632500000","ELEMENT_SET_NO":"999"},{"PERIOD":"92.910","ELEMENT_SET_NO":"999","COUNTRY_CODE":"US","BSTAR":"0.00001893800000","NORAD_CAT_ID":"53543","MEAN_ANOMALY":"355.8685","SEMIMAJOR_AXIS":"6795.201","MEAN_MOTION":"15.49884448","EPOCH":"2022-10-04T22:00:00.999936","GP_ID":"214194429","OBJECT_ID":"2022-101S","TLE_LINE1":"1 53543U 22101S   22277.91667824  .00000624  00000-0  18938-4 0  9994","FILE":"3591597","DECAY_DATE":null,"TIME_SYSTEM":"UTC","MEAN_MOTION_DDOT":"0.0000000000000","REV_AT_EPOCH":"130","SITE":"AFETR","OBJECT_TYPE":"PAYLOAD","CENTER_NAME":"EARTH","APOAPSIS":"417.921","MEAN_ELEMENT_THEORY":"SGP4","LAUNCH_DATE":"2022-08-19","ARG_OF_PERICENTER":"67.0562","INCLINATION":"53.2173","PERIAPSIS":"416.211","CLASSIFICATION_TYPE":"U","EPHEMERIS_TYPE":"0","ECCENTRICITY":"0.00012580","REF_FRAME":"TEME","OBJECT_NAME":"STARLINK-4297","RCS_SIZE":"LARGE","MEAN_MOTION_DOT":"0.00000624","RA_OF_ASC_NODE":"287.2826","TLE_LINE2":"2 53543  53.2173 287.2826 0001258  67.0562 355.8685 15.49884448  1309"},{"EPOCH":"2022-10-04T22:00:00.999936","GP_ID":"214193845","MEAN_MOTION":"15.49884553","MEAN_ANOMALY":"2.6248","SEMIMAJOR_AXIS":"6795.200","BSTAR":"0.00001529300000","COUNTRY_CODE":"US","ELEMENT_SET_NO":"999","NORAD_CAT_ID":"53544","PERIOD":"92.910","OBJECT_TYPE":"PAYLOAD","SITE":"AFETR","REV_AT_EPOCH":"130","DECAY_DATE":null,"TIME_SYSTEM":"UTC","MEAN_MOTION_DDOT":"0.0000000000000","FILE":"3591597","OBJECT_ID":"2022-101T","TLE_LINE1":"1 53544U 22101T   22277.91667824  .00000417  00000-0  15293-4 0  9996","ARG_OF_PERICENTER":"64.5140","LAUNCH_DATE":"2022-08-19","APOAPSIS":"417.935","MEAN_ELEMENT_THEORY":"SGP4","CENTER_NAME":"EARTH","TLE_LINE2":"2 53544  53.2173 287.3350 0001280  64.5140   2.6248 15.49884553  1301","RCS_SIZE":"LARGE","MEAN_MOTION_DOT":"0.00000417","OBJECT_NAME":"STARLINK-4303","RA_OF_ASC_NODE":"287.3350","REF_FRAME":"TEME","ECCENTRICITY":"0.00012800","EPHEMERIS_TYPE":"0","INCLINATION":"53.2173","PERIAPSIS":"416.196","CLASSIFICATION_TYPE":"U"},{"PERIAPSIS":"416.174","INCLINATION":"53.2173","CLASSIFICATION_TYPE":"U","EPHEMERIS_TYPE":"0","ECCENTRICITY":"0.00013120","REF_FRAME":"TEME","OBJECT_NAME":"STARLINK-4475","RCS_SIZE":"LARGE","MEAN_MOTION_DOT":"0.00000547","RA_OF_ASC_NODE":"287.2972","TLE_LINE2":"2 53545  53.2173 287.2972 0001312  61.0140   3.5963 15.49884485  1307","CENTER_NAME":"EARTH","APOAPSIS":"417.957","MEAN_ELEMENT_THEORY":"SGP4","LAUNCH_DATE":"2022-08-19","ARG_OF_PERICENTER":"61.0140","OBJECT_ID":"2022-101U","TLE_LINE1":"1 53545U 22101U   22277.91667824  .00000547  00000-0  17592-4 0  9995","FILE":"3591597","TIME_SYSTEM":"UTC","DECAY_DATE":null,"MEAN_MOTION_DDOT":"0.0000000000000","REV_AT_EPOCH":"130","SITE":"AFETR","OBJECT_TYPE":"PAYLOAD","PERIOD":"92.910","NORAD_CAT_ID":"53545","COUNTRY_CODE":"US","BSTAR":"0.00001759200000","ELEMENT_SET_NO":"999","MEAN_ANOMALY":"3.5963","SEMIMAJOR_AXIS":"6795.201","MEAN_MOTION":"15.49884485","GP_ID":"214194596","EPOCH":"2022-10-04T22:00:00.999936"},{"SITE":"AFETR","OBJECT_TYPE":"PAYLOAD","TIME_SYSTEM":"UTC","DECAY_DATE":null,"MEAN_MOTION_DDOT":"0.0000000000000","REV_AT_EPOCH":"130","OBJECT_ID":"2022-101V","TLE_LINE1":"1 53546U 22101V   22277.91667824  .00069928  00000-0  49885-3 0  9993","FILE":"3591597","EPOCH":"2022-10-04T22:00:00.999936","GP_ID":"214193679","MEAN_MOTION":"15.73149353","MEAN_ANOMALY":"38.8435","SEMIMAJOR_AXIS":"6728.040","PERIOD":"91.536","COUNTRY_CODE":"US","NORAD_CAT_ID":"53546","BSTAR":"0.00049885000000","ELEMENT_SET_NO":"999","RCS_SIZE":"LARGE","OBJECT_NAME":"STARLINK-4477","MEAN_MOTION_DOT":"0.00069928","RA_OF_ASC_NODE":"285.3960","TLE_LINE2":"2 53546  53.2153 285.3960 0007680 280.6742  38.8435 15.73149353  1303","ECCENTRICITY":"0.00076800","REF_FRAME":"TEME","EPHEMERIS_TYPE":"0","PERIAPSIS":"344.737","INCLINATION":"53.2153","CLASSIFICATION_TYPE":"U","LAUNCH_DATE":"2022-08-19","ARG_OF_PERICENTER":"280.6742","CENTER_NAME":"EARTH","MEAN_ELEMENT_THEORY":"SGP4","APOAPSIS":"355.072"},{"CENTER_NAME":"EARTH","MEAN_ELEMENT_THEORY":"SGP4","APOAPSIS":"417.926","LAUNCH_DATE":"2022-08-19","ARG_OF_PERICENTER":"66.0074","CLASSIFICATION_TYPE":"U","PERIAPSIS":"416.205","INCLINATION":"53.2173","EPHEMERIS_TYPE":"0","ECCENTRICITY":"0.00012670","REF_FRAME":"TEME","RA_OF_ASC_NODE":"287.3223","RCS_SIZE":"LARGE","MEAN_MOTION_DOT":"0.00000456","OBJECT_NAME":"STARLINK-4474","TLE_LINE2":"2 53547  53.2173 287.3223 0001267  66.0074   0.2886 15.49884533  1301","PERIOD":"92.910","COUNTRY_CODE":"US","BSTAR":"0.00001598900000","ELEMENT_SET_NO":"999","NORAD_CAT_ID":"53547","MEAN_ANOMALY":"0.2886","SEMIMAJOR_AXIS":"6795.201","MEAN_MOTION":"15.49884533","EPOCH":"2022-10-04T22:00:00.999936","GP_ID":"214194677","TLE_LINE1":"1 53547U 22101W   22277.91667824  .00000456  00000-0  15989-4 0  9994","OBJECT_ID":"2022-101W","FILE":"3591597","MEAN_MOTION_DDOT":"0.0000000000000","DECAY_DATE":null,"TIME_SYSTEM":"UTC","REV_AT_EPOCH":"130","SITE":"AFETR","OBJECT_TYPE":"PAYLOAD"},{"PERIAPSIS":"416.256","INCLINATION":"53.2173","CLASSIFICATION_TYPE":"U","EPHEMERIS_TYPE":"0","ECCENTRICITY":"0.00011910","REF_FRAME":"TEME","RCS_SIZE":"LARGE","MEAN_MOTION_DOT":"0.00000248","OBJECT_NAME":"STARLINK-4513","RA_OF_ASC_NODE":"287.3719","TLE_LINE2":"2 53548  53.2173 287.3719 0001191  81.0035 349.0439 15.49884642  1301","CENTER_NAME":"EARTH","APOAPSIS":"417.875","MEAN_ELEMENT_THEORY":"SGP4","LAUNCH_DATE":"2022-08-19","ARG_OF_PERICENTER":"81.0035","OBJECT_ID":"2022-101X","TLE_LINE1":"1 53548U 22101X   22277.91667824  .00000248  00000-0  12322-4 0  9992","FILE":"3591597","DECAY_DATE":null,"TIME_SYSTEM":"UTC","MEAN_MOTION_DDOT":"0.0000000000000","REV_AT_EPOCH":"130","SITE":"AFETR","OBJECT_TYPE":"PAYLOAD","PERIOD":"92.910","COUNTRY_CODE":"US","BSTAR":"0.00001232200000","NORAD_CAT_ID":"53548","ELEMENT_SET_NO":"999","MEAN_ANOMALY":"349.0439","SEMIMAJOR_AXIS":"6795.200","MEAN_MOTION":"15.49884642","GP_ID":"214194263","EPOCH":"2022-10-04T22:00:00.999936"},{"CLASSIFICATION_TYPE":"U","PERIAPSIS":"416.255","INCLINATION":"53.2173","EPHEMERIS_TYPE":"0","REF_FRAME":"TEME","ECCENTRICITY":"0.00011930","TLE_LINE2":"2 53549  53.2173 287.3473 0001193  79.9712 348.0104 15.49884588  1306","RA_OF_ASC_NODE":"287.3473","RCS_SIZE":"LARGE","MEAN_MOTION_DOT":"0.00000353","OBJECT_NAME":"STARLINK-4516","MEAN_ELEMENT_THEORY":"SGP4","APOAPSIS":"417.876","CENTER_NAME":"EARTH","ARG_OF_PERICENTER":"79.9712","LAUNCH_DATE":"2022-08-19","FILE":"3591597","TLE_LINE1":"1 53549U 22101Y   22277.91667824  .00000353  00000-0  14169-4 0  9991","OBJECT_ID":"2022-101Y","REV_AT_EPOCH":"130","MEAN_MOTION_DDOT":"0.0000000000000","DECAY_DATE":null,"TIME_SYSTEM":"UTC","OBJECT_TYPE":"PAYLOAD","SITE":"AFETR","COUNTRY_CODE":"US","ELEMENT_SET_NO":"999","BSTAR":"0.00001416900000","NORAD_CAT_ID":"53549","PERIOD":"92.910","MEAN_ANOMALY":"348.0104","SEMIMAJOR_AXIS":"6795.200","MEAN_MOTION":"15.49884588","GP_ID":"214194843","EPOCH":"2022-10-04T22:00:00.999936"},{"DECAY_DATE":null,"TIME_SYSTEM":"UTC","MEAN_MOTION_DDOT":"0.0000000000000","REV_AT_EPOCH":"130","SITE":"AFETR","OBJECT_TYPE":"PAYLOAD","OBJECT_ID":"2022-101Z","TLE_LINE1":"1 53550U 22101Z   22277.91667824  .00000222  00000-0  11859-4 0  9991","FILE":"3591597","MEAN_MOTION":"15.49884654","GP_ID":"214194098","EPOCH":"2022-10-04T22:00:00.999936","PERIOD":"92.910","COUNTRY_CODE":"US","BSTAR":"0.00001185900000","NORAD_CAT_ID":"53550","ELEMENT_SET_NO":"999","SEMIMAJOR_AXIS":"6795.200","MEAN_ANOMALY":"0.1236","ECCENTRICITY":"0.00012340","REF_FRAME":"TEME","MEAN_MOTION_DOT":"0.00000222","RCS_SIZE":"LARGE","OBJECT_NAME":"STARLINK-4518","RA_OF_ASC_NODE":"287.3845","TLE_LINE2":"2 53550  53.2173 287.3845 0001234  70.7667   0.1236 15.49884654  1301","PERIAPSIS":"416.227","INCLINATION":"53.2173","CLASSIFICATION_TYPE":"U","EPHEMERIS_TYPE":"0","LAUNCH_DATE":"2022-08-19","ARG_OF_PERICENTER":"70.7667","CENTER_NAME":"EARTH","APOAPSIS":"417.904","MEAN_ELEMENT_THEORY":"SGP4"},{"EPHEMERIS_TYPE":"0","PERIAPSIS":"416.259","INCLINATION":"53.2173","CLASSIFICATION_TYPE":"U","TLE_LINE2":"2 53551  53.2173 287.3599 0001186  83.1904 345.6341 15.49884612  1304","RCS_SIZE":"LARGE","OBJECT_NAME":"STARLINK-4514","MEAN_MOTION_DOT":"0.00000307","RA_OF_ASC_NODE":"287.3599","REF_FRAME":"TEME","ECCENTRICITY":"0.00011860","APOAPSIS":"417.871","MEAN_ELEMENT_THEORY":"SGP4","CENTER_NAME":"EARTH","ARG_OF_PERICENTER":"83.1904","LAUNCH_DATE":"2022-08-19","FILE":"3591597","OBJECT_ID":"2022-101AA","TLE_LINE1":"1 53551U 22101AA  22277.91667824  .00000307  00000-0  13352-4 0  9996","OBJECT_TYPE":"PAYLOAD","SITE":"AFETR","REV_AT_EPOCH":"130","DECAY_DATE":null,"TIME_SYSTEM":"UTC","MEAN_MOTION_DDOT":"0.0000000000000","SEMIMAJOR_AXIS":"6795.200","MEAN_ANOMALY":"345.6341","COUNTRY_CODE":"US","ELEMENT_SET_NO":"999","BSTAR":"0.00001335200000","NORAD_CAT_ID":"53551","PERIOD":"92.910","GP_ID":"214194430","EPOCH":"2022-10-04T22:00:00.999936","MEAN_MOTION":"15.49884612"}];
